[{"OBJECT_NAME":"OSCAR 7 (AO-7)","OBJECT_ID":"1974-089B","EPOCH":"2026-04-25T22:58:07.081824","MEAN_MOTION":12.53697171,"ECCENTRICITY":0.00119616,"INCLINATION":101.9931,"RA_OF_ASC_NODE":128.6547,"ARG_OF_PERICENTER":229.6194,"MEAN_ANOMALY":199.9459,"EPHEMERIS_TYPE":0,"CLASSIFICATION_TYPE":"U","NORAD_CAT_ID":7530,"ELEMENT_SET_NO":999,"REV_AT_EPOCH":35397,"BSTAR":9.5566331e-5,"MEAN_MOTION_DOT":-3.1e-7,"MEAN_MOTION_DDOT":0},{"OBJECT_NAME":"PHASE 3B (AO-10)","OBJECT_ID":"1983-058B","EPOCH":"2026-04-25T10:32:45.462912","MEAN_MOTION":2.05871318,"ECCENTRICITY":0.60295618,"INCLINATION":25.8952,"RA_OF_ASC_NODE":228.3573,"ARG_OF_PERICENTER":101.119,"MEAN_ANOMALY":328.2592,"EPHEMERIS_TYPE":0,"CLASSIFICATION_TYPE":"U","NORAD_CAT_ID":14129,"ELEMENT_SET_NO":999,"REV_AT_EPOCH":29440,"BSTAR":0,"MEAN_MOTION_DOT":5.8e-7,"MEAN_MOTION_DDOT":0},{"OBJECT_NAME":"UOSAT 2 (UO-11)","OBJECT_ID":"1984-021B","EPOCH":"2026-04-25T20:46:04.515456","MEAN_MOTION":14.90654729,"ECCENTRICITY":0.00077709,"INCLINATION":97.8018,"RA_OF_ASC_NODE":82.0428,"ARG_OF_PERICENTER":9.0173,"MEAN_ANOMALY":351.1184,"EPHEMERIS_TYPE":0,"CLASSIFICATION_TYPE":"U","NORAD_CAT_ID":14781,"ELEMENT_SET_NO":999,"REV_AT_EPOCH":24933,"BSTAR":0.00014933799,"MEAN_MOTION_DOT":1.408e-5,"MEAN_MOTION_DDOT":0},{"OBJECT_NAME":"LUSAT (LO-19)","OBJECT_ID":"1990-005G","EPOCH":"2026-04-25T18:50:59.777376","MEAN_MOTION":14.34106019,"ECCENTRICITY":0.00116117,"INCLINATION":98.8886,"RA_OF_ASC_NODE":136.1385,"ARG_OF_PERICENTER":5.6944,"MEAN_ANOMALY":354.437,"EPHEMERIS_TYPE":0,"CLASSIFICATION_TYPE":"U","NORAD_CAT_ID":20442,"ELEMENT_SET_NO":999,"REV_AT_EPOCH":89488,"BSTAR":5.6077379e-5,"MEAN_MOTION_DOT":1.1e-6,"MEAN_MOTION_DDOT":0},{"OBJECT_NAME":"EYESAT A (AO-27)","OBJECT_ID":"1993-061C","EPOCH":"2026-04-25T18:23:41.301600","MEAN_MOTION":14.30927492,"ECCENTRICITY":0.00073039,"INCLINATION":98.6906,"RA_OF_ASC_NODE":183.1918,"ARG_OF_PERICENTER":251.4174,"MEAN_ANOMALY":108.6215,"EPHEMERIS_TYPE":0,"CLASSIFICATION_TYPE":"U","NORAD_CAT_ID":22825,"ELEMENT_SET_NO":999,"REV_AT_EPOCH":69950,"BSTAR":4.3301845e-5,"MEAN_MOTION_DOT":6.9e-7,"MEAN_MOTION_DDOT":0},{"OBJECT_NAME":"ITAMSAT (IO-26)","OBJECT_ID":"1993-061D","EPOCH":"2026-04-25T18:16:29.919360","MEAN_MOTION":14.31352931,"ECCENTRICITY":0.00079748,"INCLINATION":98.6853,"RA_OF_ASC_NODE":183.0989,"ARG_OF_PERICENTER":232.8581,"MEAN_ANOMALY":127.1874,"EPHEMERIS_TYPE":0,"CLASSIFICATION_TYPE":"U","NORAD_CAT_ID":22826,"ELEMENT_SET_NO":999,"REV_AT_EPOCH":69981,"BSTAR":4.5330878e-5,"MEAN_MOTION_DOT":7.5e-7,"MEAN_MOTION_DDOT":0},{"OBJECT_NAME":"RADIO ROSTO (RS15)","OBJECT_ID":"1994-085A","EPOCH":"2026-04-25T21:04:28.961472","MEAN_MOTION":11.27583701,"ECCENTRICITY":0.01544479,"INCLINATION":64.8201,"RA_OF_ASC_NODE":27.8138,"ARG_OF_PERICENTER":13.3925,"MEAN_ANOMALY":347.103,"EPHEMERIS_TYPE":0,"CLASSIFICATION_TYPE":"U","NORAD_CAT_ID":23439,"ELEMENT_SET_NO":999,"REV_AT_EPOCH":29000,"BSTAR":-0.00014475999,"MEAN_MOTION_DOT":-4.8e-7,"MEAN_MOTION_DDOT":0},{"OBJECT_NAME":"JAS-2 (FO-29)","OBJECT_ID":"1996-046B","EPOCH":"2026-04-25T14:16:02.822304","MEAN_MOTION":13.53271563,"ECCENTRICITY":0.03490182,"INCLINATION":98.5303,"RA_OF_ASC_NODE":331.6515,"ARG_OF_PERICENTER":232.8208,"MEAN_ANOMALY":124.0594,"EPHEMERIS_TYPE":0,"CLASSIFICATION_TYPE":"U","NORAD_CAT_ID":24278,"ELEMENT_SET_NO":999,"REV_AT_EPOCH":46605,"BSTAR":3.4217011e-5,"MEAN_MOTION_DOT":-4.0e-8,"MEAN_MOTION_DDOT":0},{"OBJECT_NAME":"TECHSAT 1B (GO-32)","OBJECT_ID":"1998-043D","EPOCH":"2026-04-25T22:39:12.750048","MEAN_MOTION":14.24417684,"ECCENTRICITY":0.00017933,"INCLINATION":99.0061,"RA_OF_ASC_NODE":107.3893,"ARG_OF_PERICENTER":43.5469,"MEAN_ANOMALY":316.585,"EPHEMERIS_TYPE":0,"CLASSIFICATION_TYPE":"U","NORAD_CAT_ID":25397,"ELEMENT_SET_NO":999,"REV_AT_EPOCH":44389,"BSTAR":4.8241224e-5,"MEAN_MOTION_DOT":6.5e-7,"MEAN_MOTION_DDOT":0},{"OBJECT_NAME":"ISS (ZARYA)","OBJECT_ID":"1998-067A","EPOCH":"2026-04-25T14:51:50.576832","MEAN_MOTION":15.48952974,"ECCENTRICITY":0.00069494,"INCLINATION":51.632,"RA_OF_ASC_NODE":200.2872,"ARG_OF_PERICENTER":349.7097,"MEAN_ANOMALY":10.3748,"EPHEMERIS_TYPE":0,"CLASSIFICATION_TYPE":"U","NORAD_CAT_ID":25544,"ELEMENT_SET_NO":999,"REV_AT_EPOCH":56360,"BSTAR":0.00019456761,"MEAN_MOTION_DOT":0.00010271,"MEAN_MOTION_DDOT":0},{"OBJECT_NAME":"PCSAT (NO-44)","OBJECT_ID":"2001-043C","EPOCH":"2026-04-25T20:16:25.170528","MEAN_MOTION":14.31935056,"ECCENTRICITY":0.00065135,"INCLINATION":67.0528,"RA_OF_ASC_NODE":19.6518,"ARG_OF_PERICENTER":263.9909,"MEAN_ANOMALY":96.0451,"EPHEMERIS_TYPE":0,"CLASSIFICATION_TYPE":"U","NORAD_CAT_ID":26931,"ELEMENT_SET_NO":999,"REV_AT_EPOCH":28295,"BSTAR":7.695681e-5,"MEAN_MOTION_DOT":1.23e-6,"MEAN_MOTION_DDOT":0},{"OBJECT_NAME":"SAUDISAT 1C (SO-50)","OBJECT_ID":"2002-058C","EPOCH":"2026-04-25T19:49:04.603872","MEAN_MOTION":14.82928015,"ECCENTRICITY":0.00755873,"INCLINATION":64.5516,"RA_OF_ASC_NODE":290.9753,"ARG_OF_PERICENTER":271.9918,"MEAN_ANOMALY":87.2533,"EPHEMERIS_TYPE":0,"CLASSIFICATION_TYPE":"U","NORAD_CAT_ID":27607,"ELEMENT_SET_NO":999,"REV_AT_EPOCH":25669,"BSTAR":0.00015231081,"MEAN_MOTION_DOT":1.145e-5,"MEAN_MOTION_DDOT":0},{"OBJECT_NAME":"CUTE-1 (CO-55)","OBJECT_ID":"2003-031E","EPOCH":"2026-04-25T18:31:47.054496","MEAN_MOTION":14.24301725,"ECCENTRICITY":0.00091422,"INCLINATION":98.6757,"RA_OF_ASC_NODE":124.9877,"ARG_OF_PERICENTER":345.2337,"MEAN_ANOMALY":14.8573,"EPHEMERIS_TYPE":0,"CLASSIFICATION_TYPE":"U","NORAD_CAT_ID":27844,"ELEMENT_SET_NO":999,"REV_AT_EPOCH":18421,"BSTAR":0.00013095489,"MEAN_MOTION_DOT":2.59e-6,"MEAN_MOTION_DDOT":0},{"OBJECT_NAME":"CUBESAT XI-IV (CO-57)","OBJECT_ID":"2003-031J","EPOCH":"2026-04-25T22:41:03.633216","MEAN_MOTION":14.23591802,"ECCENTRICITY":0.00094313,"INCLINATION":98.679,"RA_OF_ASC_NODE":124.9135,"ARG_OF_PERICENTER":3.4724,"MEAN_ANOMALY":356.6519,"EPHEMERIS_TYPE":0,"CLASSIFICATION_TYPE":"U","NORAD_CAT_ID":27848,"ELEMENT_SET_NO":999,"REV_AT_EPOCH":18394,"BSTAR":0.0001318734,"MEAN_MOTION_DOT":2.57e-6,"MEAN_MOTION_DDOT":0},{"OBJECT_NAME":"MOZHAETS 4 (RS22)","OBJECT_ID":"2003-042A","EPOCH":"2026-04-25T22:33:54.377280","MEAN_MOTION":14.73370253,"ECCENTRICITY":0.00125442,"INCLINATION":98.3474,"RA_OF_ASC_NODE":298.8267,"ARG_OF_PERICENTER":75.8922,"MEAN_ANOMALY":84.812,"EPHEMERIS_TYPE":0,"CLASSIFICATION_TYPE":"U","NORAD_CAT_ID":27939,"ELEMENT_SET_NO":999,"REV_AT_EPOCH":20785,"BSTAR":0.00015234097,"MEAN_MOTION_DOT":9.34e-6,"MEAN_MOTION_DDOT":0},{"OBJECT_NAME":"CUBESAT XI-V","OBJECT_ID":"2005-043F","EPOCH":"2026-04-25T09:38:42.197856","MEAN_MOTION":14.72487588,"ECCENTRICITY":0.00143109,"INCLINATION":98.2923,"RA_OF_ASC_NODE":269.9383,"ARG_OF_PERICENTER":18.3896,"MEAN_ANOMALY":341.7825,"EPHEMERIS_TYPE":0,"CLASSIFICATION_TYPE":"U","NORAD_CAT_ID":28895,"ELEMENT_SET_NO":999,"REV_AT_EPOCH":9398,"BSTAR":0.00021784435,"MEAN_MOTION_DOT":1.332e-5,"MEAN_MOTION_DDOT":0}]
